CCSDS_OMM_VERS = 2.0
CREATION_DATE  = 
ORIGINATOR     = 

OBJECT_NAME    = CZ-2C R/B
OBJECT_ID      = 2022-132E
CENTER_NAME    = EARTH
REF_FRAME      = TEME
TIME_SYSTEM    = UTC
MEAN_ELEMENT_THEORY = SGP/SGP4

EPOCH          = 2026-01-02T06:10:17.232960
MEAN_MOTION    = 15.56243159
ECCENTRICITY   = .00192001
INCLINATION    = 97.2936
RA_OF_ASC_NODE = 3.8679
ARG_OF_PERICENTER = 345.0389
MEAN_ANOMALY   = 15.0295

EPHEMERIS_TYPE = 0
CLASSIFICATION_TYPE = U
NORAD_CAT_ID   = 54039
ELEMENT_SET_NO = 999
REV_AT_EPOCH   = 18002
BSTAR          = .67055774E-3
MEAN_MOTION_DOT = .47541E-3
MEAN_MOTION_DDOT = 0

CCSDS_OMM_VERS = 2.0
CREATION_DATE  = 
ORIGINATOR     = 

OBJECT_NAME    = GSLV R/B
OBJECT_ID      = 2022-138AN
CENTER_NAME    = EARTH
REF_FRAME      = TEME
TIME_SYSTEM    = UTC
MEAN_ELEMENT_THEORY = SGP/SGP4

EPOCH          = 2026-01-02T06:06:45.953856
MEAN_MOTION    = 14.96258717
ECCENTRICITY   = .00232558
INCLINATION    = 87.3820
RA_OF_ASC_NODE = 188.6025
ARG_OF_PERICENTER = 37.9956
MEAN_ANOMALY   = 322.2910

EPHEMERIS_TYPE = 0
CLASSIFICATION_TYPE = U
NORAD_CAT_ID   = 54149
ELEMENT_SET_NO = 999
REV_AT_EPOCH   = 17399
BSTAR          = .49625865E-3
MEAN_MOTION_DOT = .5658E-4
MEAN_MOTION_DDOT = 0

CCSDS_OMM_VERS = 2.0
CREATION_DATE  = 
ORIGINATOR     = 

OBJECT_NAME    = XRISM
OBJECT_ID      = 2023-137A
CENTER_NAME    = EARTH
REF_FRAME      = TEME
TIME_SYSTEM    = UTC
MEAN_ELEMENT_THEORY = SGP/SGP4

EPOCH          = 2026-01-02T06:05:40.567200
MEAN_MOTION    = 15.10604286
ECCENTRICITY   = .00076104
INCLINATION    = 31.0035
RA_OF_ASC_NODE = 353.0766
ARG_OF_PERICENTER = 93.5501
MEAN_ANOMALY   = 266.6008

EPHEMERIS_TYPE = 0
CLASSIFICATION_TYPE = U
NORAD_CAT_ID   = 57800
ELEMENT_SET_NO = 999
REV_AT_EPOCH   = 12773
BSTAR          = .61517369E-3
MEAN_MOTION_DOT = .10523E-3
MEAN_MOTION_DDOT = 0

CCSDS_OMM_VERS = 2.0
CREATION_DATE  = 
ORIGINATOR     = 

OBJECT_NAME    = ACS3
OBJECT_ID      = 2024-077B
CENTER_NAME    = EARTH
REF_FRAME      = TEME
TIME_SYSTEM    = UTC
MEAN_ELEMENT_THEORY = SGP/SGP4

EPOCH          = 2026-01-01T21:29:31.109280
MEAN_MOTION    = 13.86596828
ECCENTRICITY   = .0070517
INCLINATION    = 97.2533
RA_OF_ASC_NODE = 317.9971
ARG_OF_PERICENTER = 287.7478
MEAN_ANOMALY   = 71.5996

EPHEMERIS_TYPE = 0
CLASSIFICATION_TYPE = U
NORAD_CAT_ID   = 59588
ELEMENT_SET_NO = 999
REV_AT_EPOCH   = 8493
BSTAR          = .33811E-1
MEAN_MOTION_DOT = .40241E-3
MEAN_MOTION_DDOT = 0

CCSDS_OMM_VERS = 2.0
CREATION_DATE  = 
ORIGINATOR     = 

OBJECT_NAME    = SZ-21 MODULE
OBJECT_ID      = 2025-246C
CENTER_NAME    = EARTH
REF_FRAME      = TEME
TIME_SYSTEM    = UTC
MEAN_ELEMENT_THEORY = SGP/SGP4

EPOCH          = 2026-01-02T01:11:10.644000
MEAN_MOTION    = 15.63714409
ECCENTRICITY   = .00025753
INCLINATION    = 41.4758
RA_OF_ASC_NODE = 252.0510
ARG_OF_PERICENTER = 18.3037
MEAN_ANOMALY   = 341.7895

EPHEMERIS_TYPE = 0
CLASSIFICATION_TYPE = U
NORAD_CAT_ID   = 66515
ELEMENT_SET_NO = 999
REV_AT_EPOCH   = 762
BSTAR          = .41968007E-3
MEAN_MOTION_DOT = .40185E-3
MEAN_MOTION_DDOT = 0

