CZ-2C R/B               
1 54039U 22132E   26002.25714390  .00047541  00000+0  67056-3 0  9999
2 54039  97.2936   3.8679 0019200 345.0389  15.0295 15.56243159180020
GSLV R/B                
1 54149U 22138AN  26002.25469854  .00005658  00000+0  49626-3 0  9995
2 54149  87.3820 188.6025 0023255  37.9956 322.2910 14.96258717173997
XRISM                   
1 57800U 23137A   26002.25394175  .00010523  00000+0  61517-3 0  9995
2 57800  31.0035 353.0766 0007610  93.5501 266.6008 15.10604286127732
ACS3                    
1 59588U 24077B   26001.89549895  .00040241  00000+0  33811-1 0  9998
2 59588  97.2533 317.9971 0070517 287.7478  71.5996 13.86596828 84933
SZ-21 MODULE            
1 66515U 25246C   26002.04942875  .00040185  00000+0  41968-3 0  9999
2 66515  41.4758 252.0510 0002575  18.3037 341.7895 15.63714409  7622
